{
    "links": {
        "self": "http://www.neowsapp.com/rest/v1/neo/3157332?api_key=iIulBulltgU6a56xZRHN4H3l9WmuAYTsLGpBGhQ2"
    },
    "id": "3157332",
    "neo_reference_id": "3157332",
    "name": "(2003 MW7)",
    "designation": "2003 MW7",
    "nasa_jpl_url": "http://ssd.jpl.nasa.gov/sbdb.cgi?sstr=3157332",
    "absolute_magnitude_h": 21.5,
    "estimated_diameter": {
        "kilometers": {
            "estimated_diameter_min": 0.1332155667,
            "estimated_diameter_max": 0.2978790628
        },
        "meters": {
            "estimated_diameter_min": 133.2155666981,
            "estimated_diameter_max": 297.8790627982
        },
        "miles": {
            "estimated_diameter_min": 0.0827762899,
            "estimated_diameter_max": 0.1850934111
        },
        "feet": {
            "estimated_diameter_min": 437.0589598459,
            "estimated_diameter_max": 977.2935443908
        }
    },
    "is_potentially_hazardous_asteroid": false,
    "close_approach_data": [
        {
            "close_approach_date": "2001-12-05",
            "close_approach_date_full": "2001-Dec-05 13:44",
            "epoch_date_close_approach": 1007559840000,
            "relative_velocity": {
                "kilometers_per_second": "18.8124652113",
                "kilometers_per_hour": "67724.8747608438",
                "miles_per_hour": "42081.6034312587"
            },
            "miss_distance": {
                "astronomical": "0.2592393134",
                "lunar": "100.8440929126",
                "kilometers": "38781649.104902458",
                "miles": "24097799.3239836004"
            },
            "orbiting_body": "Earth"
        },
        {
            "close_approach_date": "2003-06-25",
            "close_approach_date_full": "2003-Jun-25 13:16",
            "epoch_date_close_approach": 1056546960000,
            "relative_velocity": {
                "kilometers_per_second": "18.2435736588",
                "kilometers_per_hour": "65676.8651715497",
                "miles_per_hour": "40809.0499172887"
            },
            "miss_distance": {
                "astronomical": "0.10209841",
                "lunar": "39.71628149",
                "kilometers": "15273704.6663867",
                "miles": "9490639.99286846"
            },
            "orbiting_body": "Earth"
        }
    ],
    "orbital_data": {
        "orbit_id": "10",
        "orbit_determination_date": "2017-04-06 09:14:01",
        "first_observation_date": "2003-06-30",
        "last_observation_date": "2003-07-09",
        "data_arc_in_days": 9,
        "observations_used": 57,
        "orbit_uncertainty": "8",
        "minimum_orbit_intersection": ".0919885",
        "jupiter_tisserand_invariant": "5.187",
        "epoch_osculation": "2452822.5",
        "eccentricity": ".5489862482251223",
        "semi_major_axis": "1.170734392231979",
        "inclination": "20.56742248389872",
        "ascending_node_longitude": "107.0734339809755",
        "orbital_period": "462.6856090860941",
        "perihelion_distance": ".5280173105724261",
        "perihelion_argument": "52.55938649133992",
        "aphelion_distance": "1.813451473891532",
        "perihelion_time": "2452751.860776919287",
        "mean_anomaly": "54.96198673498136",
        "mean_motion": ".778066127258808",
        "equinox": "J2000",
        "orbit_class": {
            "orbit_class_type": "APO",
            "orbit_class_description": "Near-Earth asteroid orbits which cross the Earth’s orbit similar to that of 1862 Apollo",
            "orbit_class_range": "a (semi-major axis) > 1.0 AU; q (perihelion) < 1.017 AU"
        }
    },
    "is_sentry_object": false
}